NORAD_CAT_ID,OBJECT_NAME,OBJECT_TYPE,EPOCH,MEAN_MOTION,ECCENTRICITY,INCLINATION,RA_OF_ASC_NODE,ARG_OF_PERICENTER,MEAN_ANOMALY,BSTAR,MEAN_MOTION_DOT,MEAN_MOTION_DDOT,TLE_LINE0,TLE_LINE1,TLE_LINE2,SEMIMAJOR_AXIS,PERIOD,APOGEE,PERIGEE,DECAYED
53263.0,STARLINK-4130,PAYLOAD,2023-11-22 01:35:16,15.08837897,0.0001572,53.2178,358.8508,92.7967,267.3205,5.3279e-05,5.6e-06,0.0,0 STARLINK-4130,1 53263U 22086X   23326.06615870  .00000560  00000-0  53279-4 0  9997,2 53263  53.2178 358.8508 0001572  92.7967 267.3205 15.08837897 74281,6917.887,95.438,540.839,538.664,0.0
53263.0,STARLINK-4130,PAYLOAD,2023-11-22 07:56:48,15.08839205,0.0001578,53.2181,357.6613,90.4135,269.7038,4.2024e-05,3.81e-06,0.0,0 STARLINK-4130,1 53263U 22086X   23326.33111861  .00000381  00000-0  42024-4 0  9995,2 53263  53.2181 357.6613 0001578  90.4135 269.7038 15.08839205 74507,6917.883,95.438,540.839,538.656,0.0
53263.0,STARLINK-4130,PAYLOAD,2023-11-23 09:22:58,15.0884319,0.0001587,53.218,352.9036,95.7895,264.3278,3.0264e-05,1.94e-06,0.0,0 STARLINK-4130,1 53263U 22086X   23327.39095805  .00000194  00000-0  30264-4 0  9996,2 53263  53.2180 352.9036 0001587  95.7895 264.3278 15.08843190 74486,6917.871,95.437,540.834,538.638,0.0
53263.0,STARLINK-4130,PAYLOAD,2023-11-24 10:49:09,15.08835676,0.0001691,53.2181,348.1461,72.3363,287.7813,3.805e-05,3.17e-06,0.0,0 STARLINK-4130,1 53263U 22086X   23328.45080878  .00000317  00000-0  38050-4 0  9996,2 53263  53.2181 348.1461 0001691  72.3363 287.7813 15.08835676 74645,6917.894,95.438,540.928,538.589,0.0
53263.0,STARLINK-4130,PAYLOAD,2023-11-25 07:29:09,15.08849615,0.0001583,53.2177,344.2786,81.7666,278.3506,0.00012232,1.66e-05,0.0,0 STARLINK-4130,1 53263U 22086X   23329.31191895  .00001660  00000-0  12232-3 0  9999,2 53263  53.2177 344.2786 0001583  81.7666 278.3506 15.08849615 74954,6917.851,95.437,540.811,538.621,0.0
53263.0,STARLINK-4130,PAYLOAD,2023-11-26 07:19:56,15.08850924,0.0001791,53.2178,339.8206,75.9472,284.1719,0.00018033,2.584e-05,0.0,0 STARLINK-4130,1 53263U 22086X   23330.30551568  .00002584  00000-0  18033-3 0  9998,2 53263  53.2178 339.8206 0001791  75.9472 284.1719 15.08850924 75107,6917.847,95.437,540.951,538.473,0.0
53263.0,STARLINK-4130,PAYLOAD,2023-11-27 04:00:00,15.08813552,0.0001759,53.2185,335.9555,84.6541,275.4652,-0.00023886,-4.085e-05,0.0,0 STARLINK-4130,1 53263U 22086X   23331.16667298 -.00004085  00000-0 -23886-3 0  9993,2 53263  53.2185 335.9555 0001759  84.6541 275.4652 15.08813552 75056,6917.961,95.439,541.043,538.609,0.0
53263.0,STARLINK-4130,PAYLOAD,2023-11-27 10:21:32,15.0882288,0.0001686,53.2187,334.76,103.9878,256.1302,-0.00026404,-4.486e-05,0.0,0 STARLINK-4130,1 53263U 22086X   23331.43162858 -.00004486  00000-0 -26404-3 0  9999,2 53263  53.2187 334.7600 0001686 103.9878 256.1302 15.08822880 75099,6917.933,95.439,540.964,538.631,0.0
53263.0,STARLINK-4130,PAYLOAD,2023-11-28 10:12:16,15.08864516,0.0001869,53.2182,330.3029,96.5899,263.5306,0.00019709,2.852e-05,0.0,0 STARLINK-4130,1 53263U 22086X   23332.42519207  .00002852  00000-0  19709-3 0  9996,2 53263  53.2182 330.3029 0001869  96.5899 263.5306 15.08864516 75249,6917.805,95.436,540.963,538.378,0.0
53263.0,STARLINK-4130,PAYLOAD,2023-11-28 11:47:40,15.08867765,0.0001756,53.2172,330.0053,93.7734,266.3459,0.00047687,7.315e-05,0.0,0 STARLINK-4130,1 53263U 22086X   23332.49143842  .00007315  00000-0  47687-3 0  9996,2 53263  53.2172 330.0053 0001756  93.7734 266.3459 15.08867765 75434,6917.796,95.436,540.875,538.446,0.0
53263.0,STARLINK-4130,PAYLOAD,2023-11-29 03:41:33,15.08838962,0.0001817,53.2173,327.0305,102.1169,258.0027,0.00025038,3.699e-05,0.0,0 STARLINK-4130,1 53263U 22086X   23333.15385841  .00003699  00000-0  25038-3 0  9994,2 53263  53.2173 327.0305 0001817 102.1169 258.0027 15.08838962 75353,6917.884,95.438,541.006,538.492,0.0
53263.0,STARLINK-4130,PAYLOAD,2023-11-29 06:52:19,15.08845557,0.0001822,53.2168,326.4348,96.6304,263.4896,0.00033461,5.042e-05,0.0,0 STARLINK-4130,1 53263U 22086X   23333.28633649  .00005042  00000-0  33461-3 0  9993,2 53263  53.2168 326.4348 0001822  96.6304 263.4896 15.08845557 75555,6917.863,95.437,540.989,538.468,0.0
53263.0,STARLINK-4130,PAYLOAD,2023-11-30 08:18:29,15.08854453,0.0001923,53.2167,321.6786,99.9123,260.2086,0.00035322,5.34e-05,0.0,0 STARLINK-4130,1 53263U 22086X   23334.34616906  .00005340  00000-0  35322-3 0  9997,2 53263  53.2167 321.6786 0001923  99.9123 260.2086 15.08854453 75533,6917.836,95.437,541.032,538.371,0.0
53263.0,STARLINK-4130,PAYLOAD,2023-12-01 04:58:30,15.0883952,0.0001764,53.2165,317.8134,104.749,255.3697,0.00012704,1.734e-05,0.0,0 STARLINK-4130,1 53263U 22086X   23335.20729517  .00001734  00000-0  12704-3 0  9998,2 53263  53.2165 317.8134 0001764 104.7490 255.3697 15.08839520 75665,6917.882,95.438,540.967,538.527,0.0
53263.0,STARLINK-4130,PAYLOAD,2023-12-01 19:16:58,15.08845945,0.0001744,53.2172,315.1373,89.445,270.6742,0.00022716,3.33e-05,0.0,0 STARLINK-4130,1 53263U 22086X   23335.80345489  .00003330  00000-0  22716-3 0  9994,2 53263  53.2172 315.1373 0001744  89.4450 270.6742 15.08845945 75931,6917.862,95.437,540.934,538.521,0.0
53263.0,STARLINK-4130,PAYLOAD,2023-12-02 06:24:39,15.08894678,0.0001839,53.2169,313.0582,84.7898,275.3304,0.0023497,0.00037362,0.0,0 STARLINK-4130,1 53263U 22086X   23336.26712583  .00037362  00000-0  23497-2 0  9996,2 53263  53.2169 313.0582 0001839  84.7898 275.3304 15.08894678 75826,6917.713,95.434,540.85,538.306,0.0
53263.0,STARLINK-4130,PAYLOAD,2023-12-03 03:04:41,15.0882529,0.0001854,53.2171,309.1916,101.281,258.8391,-0.00025507,-4.344e-05,0.0,0 STARLINK-4130,1 53263U 22086X   23337.12825895 -.00004344  00000-0 -25507-3 0  9994,2 53263  53.2171 309.1916 0001854 101.2810 258.8391 15.08825290 75952,6917.925,95.438,541.073,538.508,0.0
53263.0,STARLINK-4130,PAYLOAD,2023-12-04 02:55:29,15.08842219,0.0001842,53.2193,304.7329,87.5998,272.5205,0.00073744,0.00011469,0.0,0 STARLINK-4130,1 53263U 22086X   23338.12186827  .00011469  00000-0  73744-3 0  9990,2 53263  53.2193 304.7329 0001842  87.5998 272.5205 15.08842219 76100,6917.874,95.437,541.013,538.464,0.0
53263.0,STARLINK-4130,PAYLOAD,2023-12-04 07:41:38,15.088525,0.0001954,53.2183,303.8371,98.6484,261.473,0.0009265,0.00014493,0.0,0 STARLINK-4130,1 53263U 22086X   23338.32058495  .00014493  00000-0  92650-3 0  9998,2 53263  53.2183 303.8371 0001954  98.6484 261.4730 15.08852500 76310,6917.842,95.437,541.059,538.355,0.0
53263.0,STARLINK-4130,PAYLOAD,2023-12-04 22:00:06,15.08854962,0.0001967,53.2172,301.1587,92.3209,267.8009,0.00023108,3.393e-05,0.0,0 STARLINK-4130,1 53263U 22086X   23338.91674117  .00003393  00000-0  23108-3 0  9997,2 53263  53.2172 301.1587 0001967  92.3209 267.8009 15.08854962 76401,6917.835,95.437,541.06,538.339,0.0
53263.0,STARLINK-4130,PAYLOAD,2023-12-05 02:46:15,15.08856383,0.0002119,53.217,300.2677,99.9104,260.2127,0.0004725,7.243e-05,0.0,0 STARLINK-4130,1 53263U 22086X   23339.11545883  .00007243  00000-0  47250-3 0  9999,2 53263  53.2170 300.2677 0002119  99.9104 260.2127 15.08856383 76256,6917.83,95.437,541.161,538.229,0.0
53263.0,STARLINK-4130,PAYLOAD,2023-12-05 21:50:53,15.08849659,0.0001959,53.2169,296.7048,80.0758,280.0455,4.7357e-05,4.66e-06,0.0,0 STARLINK-4130,1 53263U 22086X   23339.91033663  .00000466  00000-0  47357-4 0  9994,2 53263  53.2169 296.7048 0001959  80.0758 280.0455 15.08849659 76557,6917.851,95.437,541.071,538.361,0.0
53263.0,STARLINK-4130,PAYLOAD,2023-12-06 02:37:02,15.08847274,0.0001942,53.217,295.8092,94.423,265.6984,-8.8249e-06,-4.29e-06,0.0,0 STARLINK-4130,1 53263U 22086X   23340.10905584 -.00000429  00000-0 -88249-5 0  9994,2 53263  53.2170 295.8092 0001942  94.4230 265.6984 15.08847274 76405,6917.858,95.437,541.067,538.38,0.0
53263.0,STARLINK-4130,PAYLOAD,2023-12-06 07:23:11,15.08850847,0.0001949,53.2167,294.9163,95.6402,264.4813,4.3759e-05,4.08e-06,0.0,0 STARLINK-4130,1 53263U 22086X   23340.30777239  .00000408  00000-0  43759-4 0  9991,2 53263  53.2167 294.9163 0001949  95.6402 264.4813 15.08850847 76612,6917.847,95.437,541.061,538.364,0.0
53263.0,STARLINK-4130,PAYLOAD,2023-12-07 02:27:50,15.08829636,0.0001877,53.2183,291.3536,99.8816,260.2389,-7.4025e-05,-1.466e-05,0.0,0 STARLINK-4130,1 53263U 22086X   23341.10267143 -.00001466  00000-0 -74025-4 0  9995,2 53263  53.2183 291.3536 0001877  99.8816 260.2389 15.08829636 76557,6917.912,95.438,541.076,538.479,0.0
53263.0,STARLINK-4130,PAYLOAD,2023-12-07 05:38:36,15.08833347,0.0001849,53.2184,290.7568,96.9487,263.1715,-5.5448e-05,-1.17e-05,0.0,0 STARLINK-4130,1 53263U 22086X   23341.23514877 -.00001170  00000-0 -55448-4 0  9998,2 53263  53.2184 290.7568 0001849  96.9487 263.1715 15.08833347 76758,6917.901,95.438,541.045,538.487,0.0
53263.0,STARLINK-4130,PAYLOAD,2023-12-08 03:54:00,15.08838419,0.0001769,53.2179,286.5877,100.5372,259.5819,5.0915e-05,5.22e-06,0.0,0 STARLINK-4130,1 53263U 22086X   23342.16250544  .00000522  00000-0  50915-4 0  9991,2 53263  53.2179 286.5877 0001769 100.5372 259.5819 15.08838419 76719,6917.885,95.438,540.974,538.526,0.0
53263.0,STARLINK-4130,PAYLOAD,2023-12-08 07:04:46,15.08838521,0.0001792,53.218,285.9921,101.2919,258.8275,5.4556e-05,5.8e-06,0.0,0 STARLINK-4130,1 53263U 22086X   23342.29498578  .00000580  00000-0  54556-4 0  9995,2 53263  53.2180 285.9921 0001792 101.2919 258.8275 15.08838521 76919,6917.885,95.438,540.99,538.51,0.0
53263.0,STARLINK-4130,PAYLOAD,2023-12-09 05:20:10,15.08846175,0.0001602,53.2176,281.8304,98.3207,261.7966,0.00020884,3.038e-05,0.0,0 STARLINK-4130,1 53263U 22086X   23343.22233991  .00003038  00000-0  20884-3 0  9992,2 53263  53.2176 281.8304 0001602  98.3207 261.7966 15.08846175 76879,6917.862,95.437,540.835,538.618,0.0
53263.0,STARLINK-4130,PAYLOAD,2023-12-10 05:10:57,15.08841428,0.0001575,53.2173,277.3693,111.9514,248.1646,5.6207e-05,6.07e-06,0.0,0 STARLINK-4130,1 53263U 22086X   23344.21594568  .00000607  00000-0  56207-4 0  9990,2 53263  53.2173 277.3693 0001575 111.9514 248.1646 15.08841428 77027,6917.876,95.437,540.831,538.651,0.0
